TIANYAN 01              
1 44881U 19093C   26140.98459983  .00000116  00000+0  19193-4 0  9999
2 44881  97.7535 213.8795 0013668 169.9280 190.2213 14.86467747347373
TIANYAN 02              
1 44882U 19093D   26140.99364965  .00004629  00000+0  33126-3 0  9990
2 44882  97.7926 235.5332 0015485 114.5198 245.7644 15.04842020348523
CBERS 4A                
1 44883U 19093E   26140.94036789 -.00000006  00000+0  56754-5 0  9996
2 44883  97.7501 209.0509 0000155 296.2833  63.8365 14.81604098347047
WEILAI 1R               
1 44884U 19093F   26140.91365707  .00003516  00000+0  28407-3 0  9999
2 44884  97.7832 230.7683 0016318 119.5565 240.7288 15.00373710348335
FLORIPASAT-1            
1 44885U 19093G   26140.94267990  .00004211  00000+0  31266-3 0  9998
2 44885  97.7903 234.9803 0012422 158.6455 201.5291 15.03539287348558
SHUNTIAN                
1 44886U 19093H   26140.96864050  .00001240  00000+0  11857-3 0  9994
2 44886  97.7997 229.2719 0012336 150.7302 209.4612 14.94999072348110
ELEKTRO-L 3             
1 44903U 19095A   26140.96461998 -.00000102  00000+0  00000+0 0  9991
2 44903   0.1878  80.1718 0000927 318.0443 263.5997  1.00270724 23438
GONETS-M 14             
1 44905U 19096A   26141.00075008  .00000010  00000+0  43615-5 0  9995
2 44905  82.5216 101.4946 0012388 208.5539 151.4864 12.42868753290306
GONETS-M 15             
1 44906U 19096B   26140.94968311  .00000015  00000+0  39865-4 0  9992
2 44906  82.5235 101.9834 0013989 233.7521 126.2266 12.42870128290268
GONETS-M 16             
1 44907U 19096C   26140.97637179 -.00000022  00000+0 -23180-3 0  9993
2 44907  82.5182 100.9321 0009689 280.8463  79.1526 12.42890605290256
RS-44 & BREEZE-KM R/B   
1 44909U 19096E   26140.32887708  .00000016  00000+0  20617-4 0  9993
2 44909  82.5231 358.2205 0216918 209.2796 149.6007 12.79748363298787
JILIN-1 KUANFU 01       
1 45016U 20003A   26140.92887923  .00001764  00000+0  11067-3 0  9997
2 45016  97.5032 215.4186 0010714  44.4622 315.7466 15.10551004351212
XINGYUN-2 01            
1 45602U 20028A   26140.93765691  .00000741  00000+0  47288-4 0  9992
2 45602  97.4862 133.8828 0007652 305.7338  54.3180 15.11673854330724
XINGYUN-2 02            
1 45603U 20028B   26140.97770634  .00000598  00000+0  39132-4 0  9999
2 45603  97.5073 147.4499 0011437  14.9791 345.1776 15.11408744330729
HAIYANG-1D              
1 45721U 20036A   26140.97328980  .00000034  00000+0  27409-4 0  9991
2 45721  98.4553  83.2470 0001763 208.0612 152.0479 14.34162632311077
M2 PATHFINDER           
1 45727U 20037E   26140.51415251  .00000978  00000+0  74278-4 0  9999
2 45727  97.8158 331.4369 0009999 242.7034 117.3174 15.04539315321334
GAOFEN DUOMO (GFDM)     
1 45856U 20042A   26140.97090323 -.00000046  00000+0  50513-6 0  9992
2 45856  97.7755 201.8448 0011530 153.9398 206.2396 14.76835245316996
ZIYUAN 3-03 (ZY 3-03)   
1 45939U 20051A   26140.95497199  .00001741  00000+0  80851-4 0  9992
2 45939  97.2839 209.5582 0005791  54.1581 306.0192 15.21282585323207
NEMO-HD                 
1 46277U 20061F   26140.97981679  .00007391  00000+0  16414-3 0  9992
2 46277  97.1930 203.2172 0002662 113.8857 246.2671 15.43984129317783
NAPA-1                  
1 46320U 20061BA  26140.94389747  .00044351  00000+0  46350-3 0  9995
2 46320  97.2478 214.3024 0001829 139.9369 220.2026 15.64354941317478
JILIN-1 GAOFEN 3E       
1 46457U 20065D   26140.93037662  .00039266  00000+0  47854-3 0  9994
2 46457  97.2276 192.9726 0010206 251.4860 108.5288 15.60341620315506
JILIN-1 GAOFEN 3F       
1 46458U 20065E   26140.91185572  .00032818  00000+0  43600-3 0  9998
2 46458  97.2229 190.4097 0011806 240.3509 119.6572 15.58066337315452
JILIN-1 GAOFEN 3G       
1 46459U 20065F   26140.91010868  .00052721  00000+0  50595-3 0  9990
2 46459  97.2304 196.8003 0012684 147.5541 212.6502 15.66368517315667
JILIN-1 GAOFEN 3H       
1 46460U 20065G   26140.95770680  .00043974  00000+0  46908-3 0  9994
2 46460  97.2248 193.3228 0008570  97.8202 262.4030 15.63790309315627
HAIYANG-2C              
1 46469U 20066A   26140.98294307 -.00000159  00000+0 -70695-4 0  9995
2 46469  65.9980 283.0151 0009888 239.4953 120.5140 13.83371782285737
HJ-2A                   
1 46478U 20067A   26140.99106781  .00000699  00000+0  10735-3 0  9990
2 46478  97.8826 220.0040 0003599  19.3548 340.7798 14.76573307304249
HJ-2B                   
1 46479U 20067B   26140.95971384 -.00000032  00000+0  25769-5 0  9993
2 46479  97.8889 220.9746 0001218  77.6296 282.5050 14.76516278304242
