OBJECT_NAME,OBJECT_ID,EPOCH,MEAN_MOTION,ECCENTRICITY,INCLINATION,RA_OF_ASC_NODE,ARG_OF_PERICENTER,MEAN_ANOMALY,EPHEMERIS_TYPE,CLASSIFICATION_TYPE,NORAD_CAT_ID,ELEMENT_SET_NO,REV_AT_EPOCH,BSTAR,MEAN_MOTION_DOT,MEAN_MOTION_DDOT
TIANYAN 01,2019-093C,2026-05-20T23:37:49.425312,14.86467747,.00136684,97.7535,213.8795,169.9280,190.2213,0,U,44881,999,34737,.19192958E-4,.116E-5,0
TIANYAN 02,2019-093D,2026-05-20T23:50:51.329760,15.04842020,.00154859,97.7926,235.5332,114.5198,245.7644,0,U,44882,999,34852,.33126019E-3,.4629E-4,0
CBERS 4A,2019-093E,2026-05-20T22:34:07.785696,14.81604098,.00001551,97.7501,209.0509,296.2833,63.8365,0,U,44883,999,34704,.5675428E-5,-.6E-7,0
WEILAI 1R,2019-093F,2026-05-20T21:55:39.970848,15.00373710,.0016318,97.7832,230.7683,119.5565,240.7288,0,U,44884,999,34833,.28406515E-3,.3516E-4,0
FLORIPASAT-1,2019-093G,2026-05-20T22:37:27.543360,15.03539287,.00124226,97.7903,234.9803,158.6455,201.5291,0,U,44885,999,34855,.3126619E-3,.4211E-4,0
SHUNTIAN,2019-093H,2026-05-20T23:14:50.539200,14.94999072,.00123361,97.7997,229.2719,150.7302,209.4612,0,U,44886,999,34811,.11856793E-3,.124E-4,0
ELEKTRO-L 3,2019-095A,2026-05-20T23:09:03.166272,1.00270724,.0000927,0.1878,80.1718,318.0443,263.5997,0,U,44903,999,2343,0,-.102E-5,0
GONETS-M 14,2019-096A,2026-05-21T00:01:04.806912,12.42868753,.0012388,82.5216,101.4946,208.5539,151.4864,0,U,44905,999,29030,.4361461E-5,.1E-6,0
GONETS-M 15,2019-096B,2026-05-20T22:47:32.620704,12.42870128,.00139891,82.5235,101.9834,233.7521,126.2266,0,U,44906,999,29026,.3986504E-4,.15E-6,0
GONETS-M 16,2019-096C,2026-05-20T23:25:58.522656,12.42890605,.00096896,82.5182,100.9321,280.8463,79.1526,0,U,44907,999,29025,-.23180341E-3,-.22E-6,0
RS-44 & BREEZE-KM R/B,2019-096E,2026-05-20T07:53:34.979712,12.79748363,.02169187,82.5231,358.2205,209.2796,149.6007,0,U,44909,999,29878,.20616825E-4,.16E-6,0
JILIN-1 KUANFU 01,2020-003A,2026-05-20T22:17:35.165472,15.10551004,.00107145,97.5032,215.4186,44.4622,315.7466,0,U,45016,999,35121,.11067077E-3,.1764E-4,0
XINGYUN-2 01,2020-028A,2026-05-20T22:30:13.557024,15.11673854,.00076525,97.4862,133.8828,305.7338,54.3180,0,U,45602,999,33072,.4728834E-4,.741E-5,0
XINGYUN-2 02,2020-028B,2026-05-20T23:27:53.827776,15.11408744,.00114376,97.5073,147.4499,14.9791,345.1776,0,U,45603,999,33072,.39132059E-4,.598E-5,0
HAIYANG-1D,2020-036A,2026-05-20T23:21:32.238720,14.34162632,.00017638,98.4553,83.2470,208.0612,152.0479,0,U,45721,999,31107,.27409063E-4,.34E-6,0
M2 PATHFINDER,2020-037E,2026-05-20T12:20:22.776864,15.04539315,.00099994,97.8158,331.4369,242.7034,117.3174,0,U,45727,999,32133,.74278328E-4,.978E-5,0
GAOFEN DUOMO (GFDM),2020-042A,2026-05-20T23:18:06.039072,14.76835245,.00115305,97.7755,201.8448,153.9398,206.2396,0,U,45856,999,31699,.505126E-6,-.46E-6,0
ZIYUAN 3-03 (ZY 3-03),2020-051A,2026-05-20T22:55:09.579936,15.21282585,.00057917,97.2839,209.5582,54.1581,306.0192,0,U,45939,999,32320,.80850745E-4,.1741E-4,0
NEMO-HD,2020-061F,2026-05-20T23:30:56.170656,15.43984129,.0002662,97.1930,203.2172,113.8857,246.2671,0,U,46277,999,31778,.16414236E-3,.7391E-4,0
NAPA-1,2020-061BA,2026-05-20T22:39:12.741408,15.64354941,.00018295,97.2478,214.3024,139.9369,220.2026,0,U,46320,999,31747,.46350307E-3,.44351E-3,0
JILIN-1 GAOFEN 3E,2020-065D,2026-05-20T22:19:44.539968,15.60341620,.00102065,97.2276,192.9726,251.4860,108.5288,0,U,46457,999,31550,.47854092E-3,.39266E-3,0
JILIN-1 GAOFEN 3F,2020-065E,2026-05-20T21:53:04.334208,15.58066337,.00118068,97.2229,190.4097,240.3509,119.6572,0,U,46458,999,31545,.43600287E-3,.32818E-3,0
JILIN-1 GAOFEN 3G,2020-065F,2026-05-20T21:50:33.389952,15.66368517,.0012684,97.2304,196.8003,147.5541,212.6502,0,U,46459,999,31566,.50595016E-3,.52721E-3,0
JILIN-1 GAOFEN 3H,2020-065G,2026-05-20T22:59:05.867520,15.63790309,.000857,97.2248,193.3228,97.8202,262.4030,0,U,46460,999,31562,.4690843E-3,.43974E-3,0
HAIYANG-2C,2020-066A,2026-05-20T23:35:26.281248,13.83371782,.00098887,65.9980,283.0151,239.4953,120.5140,0,U,46469,999,28573,-.70694952E-4,-.159E-5,0
HJ-2A,2020-067A,2026-05-20T23:47:08.258784,14.76573307,.00035994,97.8826,220.0040,19.3548,340.7798,0,U,46478,999,30424,.10735492E-3,.699E-5,0
HJ-2B,2020-067B,2026-05-20T23:01:59.275776,14.76516278,.00012189,97.8889,220.9746,77.6296,282.5050,0,U,46479,999,30424,.257686E-5,-.32E-6,0
